link,type,name,zip_code,city,street,phone,skills_name
https://www.qualit-enr.org/entreprises/pae-multiservice/,installateurs-photovoltaique,PAE MULTISERVICE,72650,SAINT SATURNIN,28 rue de Villeneuve,06 84 92 74 73,"- Photovoltaïque (0 à 500 kVA)
 - Photovoltaïque (0-36 kVA)"
https://www.qualit-enr.org/entreprises/les-compagnons-de-lenergie/,installateurs-photovoltaique,Les Compagnons de l’Energie,72120,MONTAILLE,4 impasse de la Grosse Planche,06 02 17 21 66,"- Pompe à chaleur
 - Chauffe-eau thermodynamique"
https://www.qualit-enr.org/entreprises/sas-etp/,installateurs-photovoltaique,SAS ETP,72380,MONTBIZOT,1 Bis Rue du pont de pierre,07 44 75 86 63,- Photovoltaïque : intégration bâtiment et/ou surimposition
https://www.qualit-enr.org/entreprises/tardif-bertrand/,installateurs-photovoltaique,TARDIF BERTRAND,72700,SPAY,60 rue de Fillé,06 06 98 75 87,- Photovoltaïque (0-36 kVA)
https://www.qualit-enr.org/entreprises/sarl-tendance-pool-elec/,installateurs-photovoltaique,SARL TENDANCE POOL ELEC,72380,MONTBIZOT,1284 Route de Teille,06 81 16 47 83,- Photovoltaïque (0-36 kVA)
https://www.qualit-enr.org/entreprises/lhermenier/,installateurs-photovoltaique,LHERMENIER,72000,LE MANS,21 Bis avenue Jean Jaurès,02 43 85 68 15,- Photovoltaïque (0 à 500 kVA)
https://www.qualit-enr.org/entreprises/solewa/,installateurs-photovoltaique,SOLEWA,72100,LE MANS,1 Impasse Jane Poupelet,02 43 54 80 71,- Photovoltaïque : intégration bâtiment et/ou surimposition
https://www.qualit-enr.org/entreprises/mcc-solar/,installateurs-photovoltaique,MCC SOLAR,72220,TELOCHE,Chemin de la petite Métairie,06 80 90 70 17,- Photovoltaïque : intégration bâtiment et/ou surimposition
https://www.qualit-enr.org/entreprises/adelec-sas/,installateurs-photovoltaique,ADELEC SAS,72130,FRESNAY SUR SARTHE,59 rue de l'Abbé Lelièvre,06 13 03 91 02,- Photovoltaïque (0-36 kVA)
https://www.qualit-enr.org/entreprises/sarl-sogetec/,installateurs-photovoltaique,SARL SOGETEC,72470,CHAMPAGNE,ZA la Forêt,02 43 63 32 56,"- Chaudière à condensation
 - Chaudière micro-cogénération"
https://www.qualit-enr.org/entreprises/sarl-electricite-brossier/,installateurs-photovoltaique,SARL ELECTRICITE BROSSIER,72440,BOULOIRE,ZA de la Vollerie,02 43 35 90 71,- Photovoltaïque (0 à 500 kVA)
https://www.qualit-enr.org/entreprises/sogetherm/,installateurs-photovoltaique,SOGETHERM,72000,LE MANS,66 rue Molière,02 43 50 10 66,"- Appareil bois hydraulique (chaudière, poêle, etc.)"
https://www.qualit-enr.org/entreprises/conseils-dartisans-sas/,installateurs-photovoltaique,CONSEILS D’ARTISANS SAS,72130,GESNES LE GANDELIN,32 Rue Du Chêne Aux Sourds,06 40 25 72 37,- Photovoltaïque (0 à 500 kVA)
https://www.qualit-enr.org/entreprises/oriente-solaire/,installateurs-photovoltaique,ORIENTE SOLAIRE,72330,CERANS FOULLETOURTE,ZA de la Petite Montagne,02 43 20 21 83,"- Appareil bois indépendant (insert, poêle, etc.)
 - Appareil bois hydraulique (chaudière, poêle, etc.)"
https://www.qualit-enr.org/entreprises/axiclim/,installateurs-photovoltaique,AXICLIM,72230,MONCE EN BELIN,ATLAS ESPACE,02 43 21 33 63,"- Pompe à chaleur
 - Chauffe-eau thermodynamique"
https://www.qualit-enr.org/entreprises/jouvet/,installateurs-photovoltaique,JOUVET,72700,ALLONNES,ZAC Di Vivier II,02 43 80 57 19,"- Pompe à chaleur
 - Chauffe-eau thermodynamique"
https://www.qualit-enr.org/entreprises/sarl-bertin-pascal/,installateurs-pompe-a-chaleur,SARL BERTIN PASCAL,72300,SOLESMES,ZA la Denisière,02 43 92 41 53,"- Pompe à chaleur
 - Chauffe-eau thermodynamique"
https://www.qualit-enr.org/entreprises/marceaux/,installateurs-pompe-a-chaleur,MARC’EAUX,72370,SOULITRE,5 Route du Breil,06 47 05 17 13,"- Chaudière à condensation
 - Chaudière micro-cogénération"
https://www.qualit-enr.org/entreprises/sarl-carteixelec/,installateurs-pompe-a-chaleur,SARL CARTEIXELEC,72300,SABLE SUR SARTHE,5 rue du Pont,02 43 62 18 91,"- Pompe à chaleur
 - Chauffe-eau thermodynamique"
https://www.qualit-enr.org/entreprises/ates-energies/,installateurs-pompe-a-chaleur,ATES ENERGIES,72190,SARGE LES LE MANS,4 impasse du Calvaire,02 43 23 20 00,"- Pompe à chaleur
 - Chauffe-eau thermodynamique"
https://www.qualit-enr.org/entreprises/eirl-fouchet-wilfried/,installateurs-pompe-a-chaleur,EIRL FOUCHET Wilfried,72130,FRESNAY SUR SARTHE,54 Avenue Charles de Gaulle,02 53 63 92 96,"- Pompe à chaleur
 - Chauffe-eau thermodynamique"
https://www.qualit-enr.org/entreprises/sarl-derat/,installateurs-pompe-a-chaleur,SARL DERAT,72140,CRISSE,VIGNES,02 43 20 79 51,"- Pompe à chaleur
 - Chauffe-eau thermodynamique"
https://www.qualit-enr.org/entreprises/yoann-meche/,installateurs-pompe-a-chaleur,YOANN MECHE,72460,SAVIGNE L EVEQUE,Le Marais,06 78 29 45 79,"- Pompe à chaleur
 - Chauffe-eau thermodynamique"
https://www.qualit-enr.org/entreprises/loirenergie/,installateurs-pompe-a-chaleur,LOIRENERGIE,72500,VAAS,266 Route de Loirecopark,07 60 92 53 53,"- Pompe à chaleur
 - Chauffe-eau thermodynamique"
https://www.qualit-enr.org/entreprises/acqua-france-energy/,installateurs-pompe-a-chaleur,ACQUA FRANCE ENERGY,72470,CHAMPAGNE,46 Route de Paris,02 43 82 30 84,"- Pompe à chaleur
 - Chauffe-eau thermodynamique"
https://www.qualit-enr.org/entreprises/grison-jlj/,installateurs-pompe-a-chaleur,GRISON JLJ,72110,BONNETABLE,2 bis rue Onias Martin,02 43 29 43 78,"- Appareil bois indépendant (insert, poêle, etc.)
 - Appareil bois hydraulique (chaudière, poêle, etc.)"
https://www.qualit-enr.org/entreprises/sarl-vincent-lejeune/,installateurs-pompe-a-chaleur,SARL VINCENT LEJEUNE,72330,OIZE,La Beunotterie,06 72 64 78 02,"- Pompe à chaleur
 - Chauffe-eau thermodynamique"
https://www.qualit-enr.org/entreprises/eurl-lebreton-jerome/,installateurs-pompe-a-chaleur,EURL LEBRETON JEROME,72300,VION,L'Enguiecherie,02 43 95 80 49,"- Pompe à chaleur
 - Chauffe-eau thermodynamique"
https://www.qualit-enr.org/entreprises/thermie-chauffe/,installateurs-pompe-a-chaleur,THERMIE CHAUFFE,72100,LE MANS,24 Bd Pierre Lefaucheux,06 62 09 60 15,"- Chaudière à condensation
 - Chaudière micro-cogénération"
https://www.qualit-enr.org/entreprises/vp-haux/,installateurs-pompe-a-chaleur,VP HAUX,72380,MONTBIZOT,230 Rue de la Pièce du Bois,02 43 25 20 42,"- Pompe à chaleur
 - Chauffe-eau thermodynamique"
https://www.qualit-enr.org/entreprises/epc-energie-conseil/,installateurs-pompe-a-chaleur,EPC ENERGIE CONSEIL,72380,JOUE L ABBE,ZA Les Petites Forges,02 43 27 24 31,"- Pompe à chaleur
 - Chauffe-eau thermodynamique"
https://www.qualit-enr.org/entreprises/ei-benoit-pioge/,installateurs-pompe-a-chaleur,EI Benoit Piogé,72110,BONNETABLE,2 Place d'Armes,06 05 02 53 64,"- Pompe à chaleur
 - Chauffe-eau thermodynamique"
https://www.qualit-enr.org/entreprises/europe-energie-events/,installateurs-pompe-a-chaleur,EUROPE ENERGIE EVENTS,72100,LE MANS,14 C Boulevard René Cassin,02 43 84 00 08,"- Pompe à chaleur
 - Chauffe-eau thermodynamique"
https://www.qualit-enr.org/entreprises/les-compagnons-de-lenergie/,installateurs-pompe-a-chaleur,Les Compagnons de l’Energie,72120,MONTAILLE,4 impasse de la Grosse Planche,06 02 17 21 66,"- Pompe à chaleur
 - Chauffe-eau thermodynamique"
https://www.qualit-enr.org/entreprises/sarl-cormier-penard/,installateurs-pompe-a-chaleur,SARL CORMIER-PENARD,72800,LE LUDE,4 Avenue de Saumur,02 43 94 38 15,"- Pompe à chaleur
 - Chauffe-eau thermodynamique"
https://www.qualit-enr.org/entreprises/fce/,installateurs-pompe-a-chaleur,FCE,72400,SAINT AUBIN DES COUDRAIS,La petite jolerie,06 87 69 61 46,"- Pompe à chaleur
 - Chauffe-eau thermodynamique"
https://www.qualit-enr.org/entreprises/mpc-energie/,installateurs-pompe-a-chaleur,MPC ENERGIE,72500,LUCEAU,16 Route du Mans,07 85 06 89 15,"- Pompe à chaleur
 - Chauffe-eau thermodynamique"
https://www.qualit-enr.org/entreprises/brichet-vincent/,installateurs-pompe-a-chaleur,BRICHET VINCENT,72270,COURCELLES LA FORET,La Maupinière,02 43 45 60 87,"- Pompe à chaleur
 - Chauffe-eau thermodynamique"
https://www.qualit-enr.org/entreprises/sarl-balnera-thermie/,installateurs-pompe-a-chaleur,SARL BALNERA THERMIE,72380,SAINTE JAMME SUR SARTHE,12 allée du Sablon,02 43 27 69 06,"- Appareil bois hydraulique (chaudière, poêle, etc.)"
https://www.qualit-enr.org/entreprises/sarl-lortie-christophe/,installateurs-pompe-a-chaleur,SARL LORTIE CHRISTOPHE,72610,FYE,LE PONT DE ROSAY,09 62 56 86 30,"- Pompe à chaleur
 - Chauffe-eau thermodynamique"
https://www.qualit-enr.org/entreprises/pcms/,installateurs-pompe-a-chaleur,PCMS,72400,LA FERTE BERNARD,2 Avenue du Verdun,07 87 35 05 39,"- Pompe à chaleur
 - Chauffe-eau thermodynamique"
https://www.qualit-enr.org/entreprises/romain-guerin/,installateurs-pompe-a-chaleur,ROMAIN GUERIN,72000,LE MANS,46 rue Henri Dunant,02 43 42 26 47,"- Pompe à chaleur
 - Chauffe-eau thermodynamique"
https://www.qualit-enr.org/entreprises/morlot-plomberie-chauffage/,installateurs-pompe-a-chaleur,MORLOT PLOMBERIE CHAUFFAGE,72250,PARIGNE L EVEQUE,10 Allée Des Boskoop,07 80 29 62 93,"- Appareil bois hydraulique (chaudière, poêle, etc.)"
https://www.qualit-enr.org/entreprises/plomberie-pruniere/,installateurs-pompe-a-chaleur,PLOMBERIE PRUNIERE,72560,CHANGE,Lieu-dit le Pavillon,06 78 27 84 14,"- Pompe à chaleur
 - Chauffe-eau thermodynamique"
https://www.qualit-enr.org/entreprises/sasu-hameau/,installateurs-pompe-a-chaleur,SASU HAMEAU,72290,BALLON SAINT MARS,5160 La Veillère,06 35 35 37 17,"- Pompe à chaleur
 - Chauffe-eau thermodynamique"
https://www.qualit-enr.org/entreprises/a2mcf/,installateurs-pompe-a-chaleur,A2MCF,72210,SOULIGNE FLACE,La Challerie,02 43 87 13 82,"- Pompe à chaleur
 - Chauffe-eau thermodynamique"
https://www.qualit-enr.org/entreprises/soluouest/,installateurs-pompe-a-chaleur,SOLUOUEST,72190,COULAINES,23 RUE CHRISTIAN PINEAU,06 88 12 50 56,"- Pompe à chaleur
 - Chauffe-eau thermodynamique"
https://www.qualit-enr.org/entreprises/as-plomberie-2/,installateurs-pompe-a-chaleur,AS PLOMBERIE,72140,PEZE LE ROBERT,16 Rue du 11 Aout 1944,02 43 28 67 92,"- Pompe à chaleur
 - Chauffe-eau thermodynamique"
https://www.qualit-enr.org/entreprises/lenoir-fabien/,installateurs-pompe-a-chaleur,LENOIR FABIEN,72130,FRESNAY SUR SARTHE,4 rue Georges Durand,06 24 58 21 67,"- Pompe à chaleur
 - Chauffe-eau thermodynamique"
https://www.qualit-enr.org/entreprises/sas-cepen/,installateurs-pompe-a-chaleur,SAS CEPEN,72150,LE GRAND LUCE,Le Moulin Neuf,09 82 56 68 49,"- Appareil bois hydraulique (chaudière, poêle, etc.)"
https://www.qualit-enr.org/entreprises/cj-batimans/,installateurs-pompe-a-chaleur,CJ BATI’MANS,72470,CHAMPAGNE,14 bis Route de Verdun,06 28 50 19 78,"- Pompe à chaleur
 - Chauffe-eau thermodynamique"
https://www.qualit-enr.org/entreprises/monsieur-jonathan-houtin/,installateurs-pompe-a-chaleur,MONSIEUR JONATHAN HOUTIN,72210,LOUPLANDE,2 Route de Bruleries,07 86 49 33 38,"- Pompe à chaleur
 - Chauffe-eau thermodynamique"
https://www.qualit-enr.org/entreprises/sol-air-pac/,installateurs-pompe-a-chaleur,SOL AIR PAC,72650,TRANGE,3 rue Orion,06 80 74 57 01,"- Pompe à chaleur
 - Chauffe-eau thermodynamique"
https://www.qualit-enr.org/entreprises/houdayer/,installateurs-pompe-a-chaleur,HOUDAYER,72220,ECOMMOY,ZAC des Truberdières,02 43 42 11 82,"- Pompe à chaleur
 - Chauffe-eau thermodynamique"
https://www.qualit-enr.org/entreprises/hfc-72/,installateurs-pompe-a-chaleur,HFC-72,72190,COULAINES,6 rue de la Paix,07 84 71 68 19,"- Pompe à chaleur
 - Chauffe-eau thermodynamique"
https://www.qualit-enr.org/entreprises/strategie-energetique/,installateurs-pompe-a-chaleur,STRATEGIE ENERGETIQUE,72120,MONTAILLE,5 rue Sully,07 49 61 73 76,"- Pompe à chaleur
 - Chauffe-eau thermodynamique"
https://www.qualit-enr.org/entreprises/hycargo/,installateurs-photovoltaique,Hycargo,75007,PARIS,11 rue Surcouf,06 38 20 06 91,- Photovoltaïque (0-36 kVA)
https://www.qualit-enr.org/entreprises/energum/,installateurs-photovoltaique,ENERGUM,75012,PARIS,7 Rue Du Colonel Oudot,06 75 75 95 03,- Photovoltaïque (0-36 kVA)
https://www.qualit-enr.org/entreprises/zalman-g/,installateurs-photovoltaique,ZALMAN G,75019,PARIS,100 Rue Petit,01 80 97 92 25,- Photovoltaïque (0-36 kVA)
https://www.qualit-enr.org/entreprises/as-sunergy/,installateurs-photovoltaique,AS SUNERGY,75016,PARIS,55 Avenue Marceau,06 44 75 11 21,- Photovoltaïque (0-36 kVA)
https://www.qualit-enr.org/entreprises/bdi-group-france/,installateurs-photovoltaique,BDI GROUP France,75008,PARIS,60 rue francois 1er,07 72 23 90 07,- Photovoltaïque (0 à 500 kVA)
https://www.qualit-enr.org/entreprises/eco-2-2/,installateurs-photovoltaique,ECO 2,75016,PARIS,55 rue Marceau,07 55 54 91 82,- Photovoltaïque (0-36 kVA)
https://www.qualit-enr.org/entreprises/connecting-technology/,installateurs-photovoltaique,CONNECTING TECHNOLOGY,75008,PARIS,1 AVENUE DE FRIEDLAND,01 55 09 16 55,- Photovoltaïque (0 à 500 kVA)
https://www.qualit-enr.org/entreprises/360-energy/,installateurs-photovoltaique,360 Energy,75008,PARIS,59 rue de Ponthieu,06 27 02 19 55,"- Photovoltaïque (0 à 500 kVA)
 - Photovoltaïque (0-36 kVA)"
https://www.qualit-enr.org/entreprises/excellence-btp-sasu/,installateurs-photovoltaique,EXCELLENCE BTP SASU,75020,PARIS,18 rue Ligner,07 53 31 99 64,- Photovoltaïque (0 à 500 kVA)
https://www.qualit-enr.org/entreprises/energie-plus-2/,installateurs-photovoltaique,ENERGIE PLUS,75017,PARIS,7 Avenue Niel,01 84 74 58 58,"- Photovoltaïque (0 à 500 kVA)
 - Photovoltaïque (0-36 kVA)"
https://www.qualit-enr.org/entreprises/ecowave/,installateurs-photovoltaique,ECOWAVE,75005,PARIS,14 rue Charles V,07 77 42 48 09,"- Pompe à chaleur
 - Chauffe-eau thermodynamique"
https://www.qualit-enr.org/entreprises/gns-energie/,installateurs-photovoltaique,GNS ENERGIE,75007,PARIS,5 rue General Bertrand,01 88 59 05 41,- Photovoltaïque (0-36 kVA)
https://www.qualit-enr.org/entreprises/tout-service-telecom/,installateurs-photovoltaique,tout service telecom,75007,PARIS,26 rue bosquet,06 59 59 51 62,- Photovoltaïque (0-36 kVA)
https://www.qualit-enr.org/entreprises/renostart/,installateurs-photovoltaique,RENOSTART,75008,PARIS,8 rue de Ponthieve,07 83 70 68 39,"- Pompe à chaleur
 - Chauffe-eau thermodynamique"
https://www.qualit-enr.org/entreprises/pac-eco-habitat/,installateurs-photovoltaique,PAC ECO HABITAT,75019,PARIS,37 Avenue Mathurin Moreau,06 95 16 55 19,"- Pompe à chaleur
 - Chauffe-eau thermodynamique"
https://www.qualit-enr.org/entreprises/groupe-batiso/,installateurs-photovoltaique,GROUPE BATISO,75005,PARIS,67 rue Saint Jacques,09 88 99 55 27,- Photovoltaïque (0 à 500 kVA)
https://www.qualit-enr.org/entreprises/l-t-ecologie/,installateurs-photovoltaique,L.T.Ecologie,75019,PARIS,13 Ville Curial,06 95 97 33 54,- Photovoltaïque (0-36 kVA)
https://www.qualit-enr.org/entreprises/guestup/,installateurs-photovoltaique,GUEST’UP,75020,PARIS,29 Rue de la Plaine,06 59 16 07 05,"- Chaudière à condensation
 - Chaudière micro-cogénération"
https://www.qualit-enr.org/entreprises/gte-company/,installateurs-photovoltaique,GTE COMPANY,75008,PARIS,138 boulevard Haussmann,01 75 43 01 54,- Photovoltaïque (0-36 kVA)
https://www.qualit-enr.org/entreprises/e-nair/,installateurs-photovoltaique,E N’AIR,75002,PARIS,9 RUE DES COLONNES,06 68 55 83 63,"- Pompe à chaleur
 - Chauffe-eau thermodynamique"
https://www.qualit-enr.org/entreprises/reno-plus/,installateurs-photovoltaique,RENO PLUS,75008,PARIS,59 rue de ponthieu,06 51 21 44 29,"- Pompe à chaleur
 - Chauffe-eau thermodynamique"
https://www.qualit-enr.org/entreprises/octopus-energy-services-france/,installateurs-photovoltaique,Octopus Energy Services France,75009,PARIS,8 boulevard haussmann,06 30 51 32 87,"- Photovoltaïque (0 à 500 kVA)
 - Photovoltaïque (0-36 kVA)"
https://www.qualit-enr.org/entreprises/ecotech-installation/,installateurs-photovoltaique,ECOTECH INSTALLATION,75011,PARIS,7 Rue de la Vacquerie,07 63 42 36 90,"- Pompe à chaleur
 - Chauffe-eau thermodynamique"
https://www.qualit-enr.org/entreprises/infinergy-soleilex/,installateurs-photovoltaique,INFINERGY Soleilex,75002,PARIS,10 Rue de la Bourse,07 49 49 53 75,"- Photovoltaïque (0-36 kVA)
 - Photovoltaïque (0 à 500 kVA)"
https://www.qualit-enr.org/entreprises/evoli/,installateurs-photovoltaique,EVOLI,75017,PARIS,2 passage Flourens,06 86 78 71 38,- Photovoltaïque (0 à 500 kVA)
https://www.qualit-enr.org/entreprises/bj-energies/,installateurs-photovoltaique,BJ Energies,75017,PARIS,17 rue Alphonse de Neuville,07 62 22 14 04,"- Chaudière à condensation
 - Chaudière micro-cogénération"
https://www.qualit-enr.org/entreprises/master-pose/,installateurs-photovoltaique,MASTER POSE,75017,PARIS,8 Rue Lemercier,06 17 54 35 76,"- Pompe à chaleur
 - Chauffe-eau thermodynamique"
https://www.qualit-enr.org/entreprises/mlg/,installateurs-photovoltaique,MLG,75001,PARIS,229 rue Saint Honoré,06 58 35 51 47,- Photovoltaïque (0-36 kVA)
https://www.qualit-enr.org/entreprises/austral-solar-france/,installateurs-photovoltaique,Austral Solar France,75008,PARIS,47 Boulevard de Courcelles,06 30 61 31 35,- Photovoltaïque : intégration bâtiment et/ou surimposition
https://www.qualit-enr.org/entreprises/cme-2/,installateurs-photovoltaique,CME,75008,PARIS,60 rue François 1er,09 70 70 30 50,- Photovoltaïque (0 à 500 kVA)
https://www.qualit-enr.org/entreprises/tanguy-legrans-sas/,installateurs-photovoltaique,TANGUY LEGRANS SAS,75012,PARIS,61 Rue de Lyon,07 44 47 68 16,- Photovoltaïque (0 à 500 kVA)
https://www.qualit-enr.org/entreprises/eocube/,installateurs-photovoltaique,EoCube,75016,PARIS,17 Rue PARENT DE ROSAN,07 69 49 67 57,- Photovoltaïque (0-36 kVA)
https://www.qualit-enr.org/entreprises/groupe-solar-energie/,installateurs-photovoltaique,GROUPE SOLAR ENERGIE,75020,PARIS,26 rue des Rigoles,07 51 06 23 42,- Photovoltaïque (0-36 kVA)
https://www.qualit-enr.org/entreprises/sc-company/,installateurs-photovoltaique,SC COMPANY,75019,PARIS,85A rue Petit,06 41 08 29 97,- Photovoltaïque (0-36 kVA)
https://www.qualit-enr.org/entreprises/bethel-energie/,installateurs-photovoltaique,BETHEL ENERGIE,75019,PARIS,47 Avenue Mathurin Moreau,09 70 51 52 23,"- Pompe à chaleur
 - Chauffe-eau thermodynamique"
https://www.qualit-enr.org/entreprises/onix/,installateurs-photovoltaique,ONIX,75017,PARIS,2 Passage Flourens,06 86 78 71 38,- Photovoltaïque (0 à 500 kVA)
https://www.qualit-enr.org/entreprises/tectosolar/,installateurs-photovoltaique,TECTOSOLAR,75008,PARIS,10 Rue De Penthievre,09 72 15 49 60,- Photovoltaïque (0-36 kVA)
https://www.qualit-enr.org/entreprises/octopus-energy-france/,installateurs-photovoltaique,OCTOPUS ENERGY FRANCE,75009,PARIS,6 Boulevard Haussmann,06 30 51 32 87,- Photovoltaïque (0-36 kVA)
https://www.qualit-enr.org/entreprises/lumelasol/,installateurs-photovoltaique,Lumélasol,75009,PARIS,24 Rue de CLICHY,06 80 38 81 92,- Photovoltaïque (0 à 500 kVA)
https://www.qualit-enr.org/entreprises/ad-energie/,installateurs-photovoltaique,AD ENERGIE,75017,PARIS,17 rue Saint Senoch,09 72 12 05 06,"- Pompe à chaleur
 - Chauffe-eau thermodynamique"
https://www.qualit-enr.org/entreprises/vr-pac/,installateurs-pompe-a-chaleur,VR PAC,75008,PARIS,10 RUE DE PENTHIEVRE,06 61 58 86 49,"- Pompe à chaleur
 - Chauffe-eau thermodynamique"
https://www.qualit-enr.org/entreprises/alef-energie/,installateurs-pompe-a-chaleur,ALEF ENERGIE,75008,PARIS,25 RUE DU PONTHIEU,09 77 29 99 28,"- Pompe à chaleur
 - Chauffe-eau thermodynamique"
https://www.qualit-enr.org/entreprises/ltc-froid-et-cvc/,installateurs-pompe-a-chaleur,LTC FROID ET CVC,75008,PARIS,157 rue du Faubourg Saint-Honoré,01 86 90 50 00,"- Pompe à chaleur
 - Chauffe-eau thermodynamique"
https://www.qualit-enr.org/entreprises/brk-groupe/,installateurs-pompe-a-chaleur,brk groupe,75008,PARIS,60 rue francois 1er,05 35 54 00 46,"- Pompe à chaleur
 - Chauffe-eau thermodynamique"
https://www.qualit-enr.org/entreprises/delver-companie/,installateurs-pompe-a-chaleur,DELVER COMPANIE,75008,PARIS,10 Rue Penthièvre,06 63 03 17 43,"- Pompe à chaleur
 - Chauffe-eau thermodynamique"
https://www.qualit-enr.org/entreprises/lionel-brot/,installateurs-pompe-a-chaleur,Lionel BROT,75001,PARIS,112 rue Rambuteau,06 37 43 79 27,"- Pompe à chaleur
 - Chauffe-eau thermodynamique"
https://www.qualit-enr.org/entreprises/bm-action/,installateurs-pompe-a-chaleur,BM ACTION,75116,PARIS,4 BIS AVENUE SAINT HONORE D EYLAU,06 51 13 11 70,"- Pompe à chaleur
 - Chauffe-eau thermodynamique"
https://www.qualit-enr.org/entreprises/renolev/,installateurs-pompe-a-chaleur,RENOLEV,75016,PARIS,37 bd suchet,06 95 67 92 31,"- Chaudière à condensation
 - Chaudière micro-cogénération"
https://www.qualit-enr.org/entreprises/societe-nationale-disolation-thermique/,installateurs-pompe-a-chaleur,SOCIETE NATIONALE D’ISOLATION THERMIQUE,75008,PARIS,138 Boulevard Haussmann,01 83 61 98 86,"- Pompe à chaleur
 - Chauffe-eau thermodynamique"
https://www.qualit-enr.org/entreprises/ecodurable/,installateurs-pompe-a-chaleur,ECODURABLE,75016,PARIS,104 rue Michel Ange,07 79 74 18 53,"- Chaudière à condensation
 - Chaudière micro-cogénération"
https://www.qualit-enr.org/entreprises/ads/,installateurs-pompe-a-chaleur,ADS,75007,PARIS,13 b avenue de la Motte-Picquet,06 59 32 22 64,"- Pompe à chaleur
 - Chauffe-eau thermodynamique"
https://www.qualit-enr.org/entreprises/genius-energie-environnement/,installateurs-pompe-a-chaleur,GENIUS ENERGIE ENVIRONNEMENT,75013,PARIS,19 Avenue d'Italie,06 75 99 71 33,"- Pompe à chaleur
 - Chauffe-eau thermodynamique"
https://www.qualit-enr.org/entreprises/eco-patrimoine/,installateurs-pompe-a-chaleur,ECO PATRIMOINE,75015,PARIS,"200 rue de la Croix Nivert,",06 99 78 78 44,"- Pompe à chaleur
 - Chauffe-eau thermodynamique"
https://www.qualit-enr.org/entreprises/b2a-energie/,installateurs-pompe-a-chaleur,B2A ENERGIE,75008,PARIS,60 RUE FRANCOIS 1ER,07 67 25 95 63,"- Pompe à chaleur
 - Chauffe-eau thermodynamique"
https://www.qualit-enr.org/entreprises/sarl-france-pole-isolation/,installateurs-pompe-a-chaleur,SARL FRANCE POLE ISOLATION,75012,PARIS,83 rue de Reuilly,06 59 63 06 26,"- Pompe à chaleur
 - Chauffe-eau thermodynamique"
https://www.qualit-enr.org/entreprises/frisuntec/,installateurs-pompe-a-chaleur,FRISUNTEC,75009,PARIS,24 rue de Clichy,06 41 89 42 66,"- Pompe à chaleur
 - Chauffe-eau thermodynamique"
https://www.qualit-enr.org/entreprises/artisans-multiservices-des-yvelines/,installateurs-pompe-a-chaleur,ARTISANS MULTISERVICES DES YVELINES,75010,PARIS,32 Rue de Paradis,06 98 31 25 50,"- Chaudière à condensation
 - Chaudière micro-cogénération"
https://www.qualit-enr.org/entreprises/icbtp/,installateurs-pompe-a-chaleur,ICBTP,75016,PARIS,21 rue de Presbourg,06 01 25 95 03,"- Pompe à chaleur
 - Chauffe-eau thermodynamique"
https://www.qualit-enr.org/entreprises/ims-energies/,installateurs-pompe-a-chaleur,IMS ENERGIES,75008,PARIS,25 rue de Ponthieu,06 68 64 33 29,"- Pompe à chaleur
 - Chauffe-eau thermodynamique"
https://www.qualit-enr.org/entreprises/nrjia-partner-solutions/,installateurs-pompe-a-chaleur,NRJIA PARTNER SOLUTIONS,75008,PARIS,60 rue François 1er,06 24 13 20 88,"- Pompe à chaleur
 - Chauffe-eau thermodynamique"
https://www.qualit-enr.org/entreprises/energy/,installateurs-pompe-a-chaleur,ENERGY +,75008,PARIS,60 rue François 1er,06 41 56 03 63,"- Pompe à chaleur
 - Chauffe-eau thermodynamique"
https://www.qualit-enr.org/entreprises/mcy-eco-energie/,installateurs-pompe-a-chaleur,MCY ECO ENERGIE,75002,PARIS,6 Rue de Tracy,06 52 16 67 09,"- Pompe à chaleur
 - Chauffe-eau thermodynamique"
https://www.qualit-enr.org/entreprises/gel-pac-pv/,installateurs-pompe-a-chaleur,GEL PAC PV,75008,PARIS,24 Avenue de Friedland,09 72 58 45 27,"- Pompe à chaleur
 - Chauffe-eau thermodynamique"
https://www.qualit-enr.org/entreprises/cpe-confort/,installateurs-pompe-a-chaleur,CPE CONFORT,75008,PARIS,78 avenue des Champs Elysees,06 23 60 89 79,"- Pompe à chaleur
 - Chauffe-eau thermodynamique"
https://www.qualit-enr.org/entreprises/lato/,installateurs-pompe-a-chaleur,LATO,75010,PARIS,104 RUE DU FAUBOURG POISSONNIERE,07 89 44 93 30,"- Appareil bois indépendant (insert, poêle, etc.)"
https://www.qualit-enr.org/entreprises/env-centric/,installateurs-pompe-a-chaleur,ENV-CENTRIC,75017,PARIS,9 rue Anatole de la Forge,07 67 25 78 99,"- Pompe à chaleur
 - Chauffe-eau thermodynamique"
https://www.qualit-enr.org/entreprises/eco-free-energy/,installateurs-pompe-a-chaleur,ECO FREE ENERGY,75019,PARIS,100 rue petit,01 49 88 97 35,"- Pompe à chaleur
 - Chauffe-eau thermodynamique"
https://www.qualit-enr.org/entreprises/karre-green-air/,installateurs-pompe-a-chaleur,KARRE GREEN AIR,75011,PARIS,30 BLD BEAUMARCHAIS,07 66 67 73 94,"- Pompe à chaleur
 - Chauffe-eau thermodynamique"
https://www.qualit-enr.org/entreprises/novarenovation/,installateurs-pompe-a-chaleur,NOVARENOVATION,75008,PARIS,5 AVENUE BERTIE ALBRECHT,06 29 31 38 44,"- Pompe à chaleur
 - Chauffe-eau thermodynamique"
https://www.qualit-enr.org/entreprises/t-g-s-p/,installateurs-pompe-a-chaleur,T G S P,75009,PARIS,55 RUE DU FAUBOURG MONTMARTRE,06 95 15 55 52,"- Pompe à chaleur
 - Chauffe-eau thermodynamique"
https://www.qualit-enr.org/entreprises/bs-fluides/,installateurs-pompe-a-chaleur,BS Fluides,75008,PARIS,156 Boulevard Haussmann,07 67 45 53 20,"- Chaudière à condensation
 - Chaudière micro-cogénération"
https://www.qualit-enr.org/entreprises/pro-energy-systeme/,installateurs-pompe-a-chaleur,PRO ENERGY SYSTEME,75017,PARIS,65 RUE RENNEQUIN,06 60 86 46 20,"- Pompe à chaleur
 - Chauffe-eau thermodynamique"
https://www.qualit-enr.org/entreprises/greensy/,installateurs-pompe-a-chaleur,GREENSY,75116,PARIS,22 RUE DE MAGDEBOURG,06 28 48 65 04,"- Pompe à chaleur
 - Chauffe-eau thermodynamique"
https://www.qualit-enr.org/entreprises/climatik-eco-energy/,installateurs-pompe-a-chaleur,CLIMATIK ECO ENERGY,75019,PARIS,4 Rue Botzaris,06 16 24 94 15,"- Chaudière à condensation
 - Chaudière micro-cogénération"
https://www.qualit-enr.org/entreprises/ecowave/,installateurs-pompe-a-chaleur,ECOWAVE,75005,PARIS,14 rue Charles V,07 77 42 48 09,"- Pompe à chaleur
 - Chauffe-eau thermodynamique"
https://www.qualit-enr.org/entreprises/dsm/,installateurs-pompe-a-chaleur,DSM,75001,PARIS,231 rue Saint Honoré,06 22 30 58 84,"- Pompe à chaleur
 - Chauffe-eau thermodynamique"
https://www.qualit-enr.org/entreprises/easychauff/,installateurs-pompe-a-chaleur,Easychauff,75009,PARIS,34 boulevard des italiens,07 67 41 40 88,"- Pompe à chaleur
 - Chauffe-eau thermodynamique"
https://www.qualit-enr.org/entreprises/avance-energie/,installateurs-pompe-a-chaleur,AVANCE ENERGIE,75011,PARIS,119 AVENUE PHILIPPE AUGUSTE,06 16 52 42 45,"- Pompe à chaleur
 - Chauffe-eau thermodynamique"
https://www.qualit-enr.org/entreprises/gns-energie/,installateurs-pompe-a-chaleur,GNS ENERGIE,75007,PARIS,5 rue General Bertrand,01 88 59 05 41,- Photovoltaïque (0-36 kVA)
https://www.qualit-enr.org/entreprises/renovener/,installateurs-pompe-a-chaleur,RENOVENER,75008,PARIS,60 avenue Montaigne,01 76 21 57 12,"- Pompe à chaleur
 - Chauffe-eau thermodynamique"
